GLOBAL-2                
1 43812U 18099BG  26194.60368368  .00001300  00000+0  86450-4 0  9997
2 43812  97.3544 230.0186 0007459  71.6172 288.5867 15.08819838415893
GLOBAL-4                
1 44499U 19054E   26193.98202454  .00044855  00000+0  41389-3 0  9997
2 44499  45.0059  87.2867 0005001 181.6116 178.4767 15.66910360384409
GLOBAL-9                
1 47971U 21023G   26194.79102983  .00013260  00000+0  25827-3 0  9995
2 47971  44.9819 100.8828 0003217 160.2920 199.8095 15.47575741299068
GLOBAL-14               
1 49469U 21106A   26194.29081419  .00017196  00000+0  28367-3 0  9990
2 49469  42.0027 135.8028 0017474 211.3665 148.6138 15.51762902262181
GLOBAL-12               
1 49772U 21115BA  26194.75614418  .00020043  00000+0  29698-3 0  9992
2 49772  53.1950 276.6286 0002799  70.6206 289.5109 15.55275740260035
GLOBAL-13               
1 49773U 21115BB  26194.55057591  .00012448  00000+0  25013-3 0  9991
2 49773  53.1977 289.1685 0000626 154.4418 205.6622 15.47067083259846
GLOBAL-17               
1 49949U 21120A   26194.84229278  .00016774  00000+0  25915-3 0  9994
2 49949  41.9937 250.2931 0013367  80.3338 279.9017 15.53671473259044
GLOBAL-16               
1 49950U 21120B   26194.63528772  .00015827  00000+0  26556-3 0  9994
2 49950  41.9939 255.7705 0011350  68.5390 291.6663 15.51436467258950
GLOBAL-18               
1 52196U 22034B   26194.23024429  .00014709  00000+0  29288-3 0  9994
2 52196  52.9804 132.0865 0004350  18.3325 341.7837 15.47165251240996
GLOBAL-19               
1 55982U 23041B   26194.00355035  .00009634  00000+0  25300-3 0  9996
2 55982  42.0024  51.2695 0009325 204.1950 155.8453 15.38645913185900
GLOBAL-5                
1 55983U 23041C   26193.97133182  .00009207  00000+0  24210-3 0  9994
2 55983  42.0016  50.9840 0008154 199.5354 160.5175 15.38658156185901
