{"fetched_at":"2026-07-14T06:34:44.448Z","source":"https://celestrak.org/NORAD/elements/gp.php?NAME=GLOBAL&FORMAT=JSON","constellation":"blacksky-gen2","records":[{"OBJECT_NAME":"GLOBAL-2","OBJECT_ID":"2018-099BG","EPOCH":"2026-07-13T14:29:18.269952","CLASSIFICATION_TYPE":"U","MEAN_MOTION":15.08819838,"ECCENTRICITY":0.0007459,"INCLINATION":97.3544,"RA_OF_ASC_NODE":230.0186,"ARG_OF_PERICENTER":71.6172,"MEAN_ANOMALY":288.5867,"EPHEMERIS_TYPE":0,"NORAD_CAT_ID":43812,"ELEMENT_SET_NO":999,"REV_AT_EPOCH":41589,"BSTAR":0.00008645,"MEAN_MOTION_DOT":0.000013,"MEAN_MOTION_DDOT":0},{"OBJECT_NAME":"GLOBAL-4","OBJECT_ID":"2019-054E","EPOCH":"2026-07-12T23:34:06.920256","CLASSIFICATION_TYPE":"U","MEAN_MOTION":15.6691036,"ECCENTRICITY":0.00050015,"INCLINATION":45.0059,"RA_OF_ASC_NODE":87.2867,"ARG_OF_PERICENTER":181.6116,"MEAN_ANOMALY":178.4767,"EPHEMERIS_TYPE":0,"NORAD_CAT_ID":44499,"ELEMENT_SET_NO":999,"REV_AT_EPOCH":38440,"BSTAR":0.00041388718,"MEAN_MOTION_DOT":0.00044855,"MEAN_MOTION_DDOT":0},{"OBJECT_NAME":"GLOBAL-9","OBJECT_ID":"2021-023G","EPOCH":"2026-07-13T18:59:04.977312","CLASSIFICATION_TYPE":"U","MEAN_MOTION":15.47575741,"ECCENTRICITY":0.0003217,"INCLINATION":44.9819,"RA_OF_ASC_NODE":100.8828,"ARG_OF_PERICENTER":160.292,"MEAN_ANOMALY":199.8095,"EPHEMERIS_TYPE":0,"NORAD_CAT_ID":47971,"ELEMENT_SET_NO":999,"REV_AT_EPOCH":29906,"BSTAR":0.00025827,"MEAN_MOTION_DOT":0.0001326,"MEAN_MOTION_DDOT":0},{"OBJECT_NAME":"GLOBAL-14","OBJECT_ID":"2021-106A","EPOCH":"2026-07-13T06:58:46.346016","CLASSIFICATION_TYPE":"U","MEAN_MOTION":15.51762902,"ECCENTRICITY":0.00174747,"INCLINATION":42.0027,"RA_OF_ASC_NODE":135.8028,"ARG_OF_PERICENTER":211.3665,"MEAN_ANOMALY":148.6138,"EPHEMERIS_TYPE":0,"NORAD_CAT_ID":49469,"ELEMENT_SET_NO":999,"REV_AT_EPOCH":26218,"BSTAR":0.00028367063,"MEAN_MOTION_DOT":0.00017196,"MEAN_MOTION_DDOT":0},{"OBJECT_NAME":"GLOBAL-12","OBJECT_ID":"2021-115BA","EPOCH":"2026-07-13T18:08:50.857152","CLASSIFICATION_TYPE":"U","MEAN_MOTION":15.5527574,"ECCENTRICITY":0.0002799,"INCLINATION":53.195,"RA_OF_ASC_NODE":276.6286,"ARG_OF_PERICENTER":70.6206,"MEAN_ANOMALY":289.5109,"EPHEMERIS_TYPE":0,"NORAD_CAT_ID":49772,"ELEMENT_SET_NO":999,"REV_AT_EPOCH":26003,"BSTAR":0.00029698,"MEAN_MOTION_DOT":0.00020043,"MEAN_MOTION_DDOT":0},{"OBJECT_NAME":"GLOBAL-13","OBJECT_ID":"2021-115BB","EPOCH":"2026-07-13T13:12:49.758624","CLASSIFICATION_TYPE":"U","MEAN_MOTION":15.47067083,"ECCENTRICITY":0.0000626,"INCLINATION":53.1977,"RA_OF_ASC_NODE":289.1685,"ARG_OF_PERICENTER":154.4418,"MEAN_ANOMALY":205.6622,"EPHEMERIS_TYPE":0,"NORAD_CAT_ID":49773,"ELEMENT_SET_NO":999,"REV_AT_EPOCH":25984,"BSTAR":0.00025013,"MEAN_MOTION_DOT":0.00012448,"MEAN_MOTION_DDOT":0},{"OBJECT_NAME":"GLOBAL-17","OBJECT_ID":"2021-120A","EPOCH":"2026-07-13T20:12:54.096192","CLASSIFICATION_TYPE":"U","MEAN_MOTION":15.53671473,"ECCENTRICITY":0.0013367,"INCLINATION":41.9937,"RA_OF_ASC_NODE":250.2931,"ARG_OF_PERICENTER":80.3338,"MEAN_ANOMALY":279.9017,"EPHEMERIS_TYPE":0,"NORAD_CAT_ID":49949,"ELEMENT_SET_NO":999,"REV_AT_EPOCH":25904,"BSTAR":0.00025915,"MEAN_MOTION_DOT":0.00016774,"MEAN_MOTION_DDOT":0},{"OBJECT_NAME":"GLOBAL-16","OBJECT_ID":"2021-120B","EPOCH":"2026-07-13T15:14:48.859008","CLASSIFICATION_TYPE":"U","MEAN_MOTION":15.51436467,"ECCENTRICITY":0.001135,"INCLINATION":41.9939,"RA_OF_ASC_NODE":255.7705,"ARG_OF_PERICENTER":68.539,"MEAN_ANOMALY":291.6663,"EPHEMERIS_TYPE":0,"NORAD_CAT_ID":49950,"ELEMENT_SET_NO":999,"REV_AT_EPOCH":25895,"BSTAR":0.00026556,"MEAN_MOTION_DOT":0.00015827,"MEAN_MOTION_DDOT":0},{"OBJECT_NAME":"GLOBAL-18","OBJECT_ID":"2022-034B","EPOCH":"2026-07-13T05:31:33.106656","CLASSIFICATION_TYPE":"U","MEAN_MOTION":15.47165251,"ECCENTRICITY":0.000435,"INCLINATION":52.9804,"RA_OF_ASC_NODE":132.0865,"ARG_OF_PERICENTER":18.3325,"MEAN_ANOMALY":341.7837,"EPHEMERIS_TYPE":0,"NORAD_CAT_ID":52196,"ELEMENT_SET_NO":999,"REV_AT_EPOCH":24099,"BSTAR":0.00029288,"MEAN_MOTION_DOT":0.00014709,"MEAN_MOTION_DDOT":0},{"OBJECT_NAME":"GLOBAL-19","OBJECT_ID":"2023-041B","EPOCH":"2026-07-13T00:05:06.750240","CLASSIFICATION_TYPE":"U","MEAN_MOTION":15.38645913,"ECCENTRICITY":0.00093255,"INCLINATION":42.0024,"RA_OF_ASC_NODE":51.2695,"ARG_OF_PERICENTER":204.195,"MEAN_ANOMALY":155.8453,"EPHEMERIS_TYPE":0,"NORAD_CAT_ID":55982,"ELEMENT_SET_NO":999,"REV_AT_EPOCH":18590,"BSTAR":0.00025300389,"MEAN_MOTION_DOT":0.00009634,"MEAN_MOTION_DDOT":0},{"OBJECT_NAME":"GLOBAL-5","OBJECT_ID":"2023-041C","EPOCH":"2026-07-12T23:18:43.069248","CLASSIFICATION_TYPE":"U","MEAN_MOTION":15.38658156,"ECCENTRICITY":0.0008154,"INCLINATION":42.0016,"RA_OF_ASC_NODE":50.984,"ARG_OF_PERICENTER":199.5354,"MEAN_ANOMALY":160.5175,"EPHEMERIS_TYPE":0,"NORAD_CAT_ID":55983,"ELEMENT_SET_NO":999,"REV_AT_EPOCH":18590,"BSTAR":0.00024209758,"MEAN_MOTION_DOT":0.00009207,"MEAN_MOTION_DDOT":0}]}
